{
    "type": "FeatureCollection",
    "features": [
        {
            "type": "Feature",
            "properties": {
                "Name": "Garden Boundary"
            },
            "geometry": {
                "type": "Polygon",
                "coordinates": [
                    [
                        [
                            -72.873871,
                            41.313912
                        ],
                        [
                            -72.873836,
                            41.313919
                        ],
                        [
                            -72.873822,
                            41.313936
                        ],
                        [
                            -72.873764,
                            41.314067
                        ],
                        [
                            -72.873699,
                            41.314234
                        ],
                        [
                            -72.873657,
                            41.314338
                        ],
                        [
                            -72.873624,
                            41.31442
                        ],
                        [
                            -72.873613,
                            41.314469
                        ],
                        [
                            -72.87362,
                            41.314503
                        ],
                        [
                            -72.873642,
                            41.314524
                        ],
                        [
                            -72.873668,
                            41.314532
                        ],
                        [
                            -72.873714,
                            41.314535
                        ],
                        [
                            -72.873818,
                            41.314497
                        ],
                        [
                            -72.87412,
                            41.314361
                        ],
                        [
                            -72.87399,
                            41.314064
                        ],
                        [
                            -72.873871,
                            41.313912
                        ]
                    ]
                ]
            },
            "bbox": [
                -72.87412,
                41.313912,
                -72.873613,
                41.314535
            ]
        }
    ]
}