{
    "type": "FeatureCollection",
    "features": [
        {
            "type": "Feature",
            "properties": {
                "Name": "Garden Boundary"
            },
            "geometry": {
                "type": "Polygon",
                "coordinates": [
                    [
                        [
                            -72.873871,
                            41.313912
                        ],
                        [
                            -72.873836,
                            41.313919
                        ],
                        [
                            -72.873822,
                            41.313936
                        ],
                        [
                            -72.873764,
                            41.314067
                        ],
                        [
                            -72.873699,
                            41.314234
                        ],
                        [
                            -72.873657,
                            41.314338
                        ],
                        [
                            -72.873624,
                            41.31442
                        ],
                        [
                            -72.873613,
                            41.314469
                        ],
                        [
                            -72.87362,
                            41.314503
                        ],
                        [
                            -72.873642,
                            41.314524
                        ],
                        [
                            -72.873668,
                            41.314532
                        ],
                        [
                            -72.873714,
                            41.314535
                        ],
                        [
                            -72.873818,
                            41.314497
                        ],
                        [
                            -72.87412,
                            41.314361
                        ],
                        [
                            -72.87399,
                            41.314064
                        ],
                        [
                            -72.873871,
                            41.313912
                        ]
                    ]
                ]
            },
            "bbox": [
                -72.87412,
                41.313912,
                -72.873613,
                41.314535
            ]
        },
        {
            "type": "Feature",
            "properties": {
                "Name": "F",
                "Year Established": 2024,
                "Remarks": "Sunny Garden",
                "Zone": "F",
                "fill": "rgba(238, 255, 0, 1)"
            },
            "geometry": {
                "type": "Polygon",
                "coordinates": [
                    [
                        [
                            -72.873718,
                            41.314453
                        ],
                        [
                            -72.873709,
                            41.314451
                        ],
                        [
                            -72.873697,
                            41.314445
                        ],
                        [
                            -72.873685,
                            41.314446
                        ],
                        [
                            -72.873678,
                            41.314451
                        ],
                        [
                            -72.873661,
                            41.314481
                        ],
                        [
                            -72.873657,
                            41.314494
                        ],
                        [
                            -72.873662,
                            41.314516
                        ],
                        [
                            -72.873675,
                            41.314525
                        ],
                        [
                            -72.873696,
                            41.314527
                        ],
                        [
                            -72.873718,
                            41.314525
                        ],
                        [
                            -72.87375,
                            41.314514
                        ],
                        [
                            -72.873769,
                            41.314503
                        ],
                        [
                            -72.873781,
                            41.314491
                        ],
                        [
                            -72.873772,
                            41.314478
                        ],
                        [
                            -72.873718,
                            41.314453
                        ]
                    ]
                ]
            },
            "bbox": [
                -72.873781,
                41.314445,
                -72.873657,
                41.314527
            ]
        },
        {
            "type": "Feature",
            "properties": {
                "Name": "C",
                "Year Established": 2022,
                "Remarks": "Goldenrod",
                "fill": "rgba(3, 131, 9, 1)",
                "Zone": "C"
            },
            "geometry": {
                "type": "Polygon",
                "coordinates": [
                    [
                        [
                            -72.873784,
                            41.314484
                        ],
                        [
                            -72.873806,
                            41.31449
                        ],
                        [
                            -72.87383,
                            41.314484
                        ],
                        [
                            -72.873848,
                            41.314469
                        ],
                        [
                            -72.873837,
                            41.314442
                        ],
                        [
                            -72.87378,
                            41.314434
                        ],
                        [
                            -72.873769,
                            41.314437
                        ],
                        [
                            -72.873763,
                            41.314468
                        ],
                        [
                            -72.873784,
                            41.314484
                        ]
                    ]
                ]
            },
            "bbox": [
                -72.873848,
                41.314434,
                -72.873763,
                41.31449
            ]
        },
        {
            "type": "Feature",
            "properties": {
                "Name": "A",
                "Year Established": 2020,
                "Zone": "A",
                "fill": "rgba(255, 0, 0, 1)"
            },
            "geometry": {
                "type": "Polygon",
                "coordinates": [
                    [
                        [
                            -72.873856,
                            41.314374
                        ],
                        [
                            -72.87379,
                            41.314373
                        ],
                        [
                            -72.873759,
                            41.314372
                        ],
                        [
                            -72.87376,
                            41.314391
                        ],
                        [
                            -72.873775,
                            41.314406
                        ],
                        [
                            -72.873793,
                            41.31442
                        ],
                        [
                            -72.873824,
                            41.314429
                        ],
                        [
                            -72.873869,
                            41.314408
                        ],
                        [
                            -72.873856,
                            41.314374
                        ]
                    ]
                ]
            },
            "bbox": [
                -72.873869,
                41.314372,
                -72.873759,
                41.314429
            ]
        },
        {
            "type": "Feature",
            "properties": {
                "Name": "B",
                "Zone": "B",
                "Year Established": 2020,
                "fill": "rgba(255, 0, 0, 1)"
            },
            "geometry": {
                "type": "Polygon",
                "coordinates": [
                    [
                        [
                            -72.873906,
                            41.314409
                        ],
                        [
                            -72.873861,
                            41.314322
                        ],
                        [
                            -72.873847,
                            41.314323
                        ],
                        [
                            -72.87389,
                            41.314413
                        ],
                        [
                            -72.873906,
                            41.314409
                        ]
                    ]
                ]
            },
            "bbox": [
                -72.873906,
                41.314322,
                -72.873847,
                41.314413
            ]
        },
        {
            "type": "Feature",
            "properties": {
                "Name": "D",
                "fill": "rgba(0, 251, 255, 1)",
                "Remarks": "",
                "Year Established": 2023,
                "Zone": "D"
            },
            "geometry": {
                "type": "Polygon",
                "coordinates": [
                    [
                        [
                            -72.873915,
                            41.314433
                        ],
                        [
                            -72.873907,
                            41.314412
                        ],
                        [
                            -72.873871,
                            41.314424
                        ],
                        [
                            -72.873848,
                            41.314428
                        ],
                        [
                            -72.873858,
                            41.314453
                        ],
                        [
                            -72.873886,
                            41.31445
                        ],
                        [
                            -72.873915,
                            41.314433
                        ]
                    ]
                ]
            },
            "bbox": [
                -72.873915,
                41.314412,
                -72.873848,
                41.314453
            ]
        },
        {
            "type": "Feature",
            "properties": {
                "Name": "E",
                "fill": "rgba(9, 1, 255, 1)",
                "Remarks": "Shady Garden",
                "Zone": "E"
            },
            "geometry": {
                "type": "Polygon",
                "coordinates": [
                    [
                        [
                            -72.873848,
                            41.314203
                        ],
                        [
                            -72.873844,
                            41.31418
                        ],
                        [
                            -72.87384,
                            41.314163
                        ],
                        [
                            -72.873831,
                            41.314155
                        ],
                        [
                            -72.8738,
                            41.314159
                        ],
                        [
                            -72.873787,
                            41.314171
                        ],
                        [
                            -72.873777,
                            41.314185
                        ],
                        [
                            -72.873784,
                            41.314201
                        ],
                        [
                            -72.873794,
                            41.314208
                        ],
                        [
                            -72.873815,
                            41.314213
                        ],
                        [
                            -72.873848,
                            41.314203
                        ]
                    ]
                ]
            },
            "bbox": [
                -72.873848,
                41.314155,
                -72.873777,
                41.314213
            ]
        },
        {
            "type": "Feature",
            "properties": {
                "Name": "G",
                "fill": "rgba(255, 0, 255, 1)",
                "Zone": "G",
                "Year Established": 2025
            },
            "geometry": {
                "type": "Polygon",
                "coordinates": [
                    [
                        [
                            -72.87403,
                            41.314201
                        ],
                        [
                            -72.874007,
                            41.314209
                        ],
                        [
                            -72.874027,
                            41.31424
                        ],
                        [
                            -72.874038,
                            41.314271
                        ],
                        [
                            -72.873968,
                            41.314291
                        ],
                        [
                            -72.873917,
                            41.314323
                        ],
                        [
                            -72.874044,
                            41.314336
                        ],
                        [
                            -72.874076,
                            41.314295
                        ],
                        [
                            -72.87403,
                            41.314201
                        ]
                    ]
                ]
            },
            "bbox": [
                -72.874076,
                41.314201,
                -72.873917,
                41.314336
            ]
        }
    ]
}